NORAD_CAT_ID,OBJECT_NAME,OBJECT_TYPE,EPOCH,MEAN_MOTION,ECCENTRICITY,INCLINATION,RA_OF_ASC_NODE,ARG_OF_PERICENTER,MEAN_ANOMALY,BSTAR,MEAN_MOTION_DOT,MEAN_MOTION_DDOT,TLE_LINE0,TLE_LINE1,TLE_LINE2,SEMIMAJOR_AXIS,PERIOD,APOGEE,PERIGEE,DECAYED
52452.0,STARLINK-3909,PAYLOAD,2024-04-14 22:11:12,15.08841884,0.0001531,53.2184,303.4259,97.1688,262.9478,0.00023265,3.417e-05,0.0,0 STARLINK-3909,1 52452U 22049B   24105.92444456  .00003417  00000-0  23265-3 0  9991,2 52452  53.2184 303.4259 0001531  97.1688 262.9478 15.08841884107371,6917.875,95.437,540.799,538.681,0.0
52452.0,STARLINK-3909,PAYLOAD,2024-04-15 20:26:36,15.08834547,0.0001307,53.2174,299.2646,97.7377,262.3763,8.3266e-05,1.037e-05,0.0,0 STARLINK-3909,1 52452U 22049B   24106.85181080  .00001037  00000-0  83266-4 0  9999,2 52452  53.2174 299.2646 0001307  97.7377 262.3763 15.08834547107676,6917.897,95.438,540.666,538.858,0.0
52452.0,STARLINK-3909,PAYLOAD,2024-04-16 05:58:55,15.08841012,0.0001425,53.2181,297.4777,80.3239,279.7914,0.000151,2.116e-05,0.0,0 STARLINK-3909,1 52452U 22049B   24107.24925037  .00002116  00000-0  15100-3 0  9991,2 52452  53.2181 297.4777 0001425  80.3239 279.7914 15.08841012107579,6917.877,95.437,540.728,538.756,0.0
52452.0,STARLINK-3909,PAYLOAD,2024-04-16 18:41:59,15.0886173,0.0001201,53.2158,295.0975,90.4519,269.6611,0.00052214,8.037e-05,0.0,0 STARLINK-3909,1 52452U 22049B   24107.77916025  .00008037  00000-0  52214-3 0  9991,2 52452  53.2158 295.0975 0001201  90.4519 269.6611 15.08861730107810,6917.814,95.436,540.51,538.848,0.0
52452.0,STARLINK-3909,PAYLOAD,2024-04-17 12:11:14,15.0884859,0.0001323,53.2169,291.8269,89.3626,270.7517,0.00026159,3.879e-05,0.0,0 STARLINK-3909,1 52452U 22049B   24108.50780436  .00003879  00000-0  26159-3 0  9996,2 52452  53.2169 291.8269 0001323  89.3626 270.7517 15.08848590107922,6917.854,95.437,540.634,538.804,0.0
52452.0,STARLINK-3909,PAYLOAD,2024-04-17 18:32:46,15.08854434,0.0001349,53.217,290.638,91.547,268.5677,0.00036318,5.499e-05,0.0,0 STARLINK-3909,1 52452U 22049B   24108.77276142  .00005499  00000-0  36318-3 0  9997,2 52452  53.2170 290.6380 0001349  91.5470 268.5677 15.08854434107808,6917.836,95.437,540.634,538.768,0.0
52452.0,STARLINK-3909,PAYLOAD,2024-04-18 12:02:01,15.08836419,0.0001782,53.2162,287.3717,74.6383,285.4806,0.00031395,4.712e-05,0.0,0 STARLINK-3909,1 52452U 22049B   24109.50140820  .00004712  00000-0  31395-3 0  9999,2 52452  53.2162 287.3717 0001782  74.6383 285.4806 15.08836419108077,6917.891,95.438,540.989,538.524,0.0
52452.0,STARLINK-3909,PAYLOAD,2024-04-18 18:23:33,15.08849353,0.0001639,53.2181,286.1804,79.0593,281.0584,-3.4949e-05,-8.44e-06,0.0,0 STARLINK-3909,1 52452U 22049B   24109.76636187 -.00000844  00000-0 -34949-4 0  9996,2 52452  53.2181 286.1804 0001639  79.0593 281.0584 15.08849353108116,6917.852,95.437,540.851,538.583,0.0
52452.0,STARLINK-3909,PAYLOAD,2024-04-19 16:38:57,15.08844072,0.0001583,53.2177,282.0161,87.4477,272.6696,0.00018113,2.596e-05,0.0,0 STARLINK-3909,1 52452U 22049B   24110.69372576  .00002596  00000-0  18113-3 0  9997,2 52452  53.2177 282.0161 0001583  87.4477 272.6696 15.08844072108252,6917.868,95.437,540.828,538.638,0.0
52452.0,STARLINK-3909,PAYLOAD,2024-04-19 21:25:06,15.08851063,0.0001526,53.2174,281.1183,103.7922,256.324,0.000217,3.168e-05,0.0,0 STARLINK-3909,1 52452U 22049B   24110.89243972  .00003168  00000-0  21700-3 0  9998,2 52452  53.2174 281.1183 0001526 103.7922 256.3240 15.08851063108125,6917.847,95.437,540.767,538.656,0.0
52452.0,STARLINK-3909,PAYLOAD,2024-04-20 11:43:36,15.08831319,0.0002008,53.2173,278.446,105.1224,254.999,-0.00013988,-2.513e-05,0.0,0 STARLINK-3909,1 52452U 22049B   24111.48861131 -.00002513  00000-0 -13988-3 0  9991,2 52452  53.2173 278.4460 0002008 105.1224 254.9990 15.08831319108373,6917.907,95.438,541.161,538.383,0.0
52452.0,STARLINK-3909,PAYLOAD,2024-04-20 14:54:22,15.08831734,0.000157,53.2173,277.8526,105.4123,254.7042,-9.8695e-05,-1.858e-05,0.0,0 STARLINK-3909,1 52452U 22049B   24111.62109177 -.00001858  00000-0 -98695-4 0  9992,2 52452  53.2173 277.8526 0001570 105.4123 254.7042 15.08831734108235,6917.906,95.438,540.857,538.685,0.0
52452.0,STARLINK-3909,PAYLOAD,2024-04-20 16:29:45,15.08834991,0.0001712,53.2172,277.5545,108.8204,251.2974,-3.0837e-05,-7.79e-06,0.0,0 STARLINK-3909,1 52452U 22049B   24111.68733081 -.00000779  00000-0 -30837-4 0  9990,2 52452  53.2172 277.5545 0001712 108.8204 251.2974 15.08834991108242,6917.896,95.438,540.945,538.576,0.0
52452.0,STARLINK-3909,PAYLOAD,2024-04-21 14:45:09,15.08850085,0.0001727,53.2169,273.392,115.9208,244.1962,0.00025106,3.711e-05,0.0,0 STARLINK-3909,1 52452U 22049B   24112.61468808  .00003711  00000-0  25106-3 0  9995,2 52452  53.2169 273.3920 0001727 115.9208 244.1962 15.08850085108383,6917.85,95.437,540.909,538.52,0.0
52452.0,STARLINK-3909,PAYLOAD,2024-04-21 16:20:32,15.08850145,0.0001677,53.2171,273.0951,112.0425,248.0745,0.00060579,9.369e-05,0.0,0 STARLINK-3909,1 52452U 22049B   24112.68093067  .00009369  00000-0  60579-3 0  9991,2 52452  53.2171 273.0951 0001677 112.0425 248.0745 15.08850145108390,6917.849,95.437,540.875,538.554,0.0
52452.0,STARLINK-3909,PAYLOAD,2024-04-22 19:22:05,15.08856554,0.0001444,53.2169,268.0401,107.5597,252.5552,0.00081263,0.00012674,0.0,0 STARLINK-3909,1 52452U 22049B   24113.80700960  .00012674  00000-0  81263-3 0  9999,2 52452  53.2169 268.0401 0001444 107.5597 252.5552 15.08856554108725,6917.83,95.437,540.694,538.696,0.0
52452.0,STARLINK-3909,PAYLOAD,2024-04-23 14:26:43,15.08835119,0.0002639,53.2169,264.47,140.1166,220.0021,0.00057024,8.798e-05,0.0,0 STARLINK-3909,1 52452U 22049B   24114.60189223  .00008798  00000-0  57024-3 0  9991,2 52452  53.2169 264.4700 0002639 140.1166 220.0021 15.08835119108689,6917.895,95.438,541.586,537.935,0.0
52452.0,STARLINK-3909,PAYLOAD,2024-04-23 17:37:30,15.08831664,0.0001195,53.2164,263.8757,115.5346,244.5769,0.00019045,2.744e-05,0.0,0 STARLINK-3909,1 52452U 22049B   24114.73437539  .00002744  00000-0  19045-3 0  9997,2 52452  53.2164 263.8757 0001195 115.5346 244.5769 15.08831664108862,6917.906,95.438,540.598,538.944,0.0
52452.0,STARLINK-3909,PAYLOAD,2024-04-24 14:17:30,15.08852173,0.000114,53.2167,260.0065,115.6425,244.4685,0.00066326,0.00010287,0.0,0 STARLINK-3909,1 52452U 22049B   24115.59549284  .00010287  00000-0  66326-3 0  9998,2 52452  53.2167 260.0065 0001140 115.6425 244.4685 15.08852173108836,6917.843,95.437,540.497,538.92,0.0
52452.0,STARLINK-3909,PAYLOAD,2024-04-24 15:52:54,15.08849046,0.0001916,53.2164,259.7105,64.5157,295.6033,0.001312,0.00020659,0.0,0 STARLINK-3909,1 52452U 22049B   24115.66173812  .00020659  00000-0  13120-2 0  9993,2 52452  53.2164 259.7105 0001916  64.5157 295.6033 15.08849046109008,6917.853,95.437,541.043,538.392,0.0
52452.0,STARLINK-3909,PAYLOAD,2024-04-25 12:32:54,15.08846857,0.0001292,53.2167,255.8432,121.0826,239.0293,0.00034067,5.139e-05,0.0,0 STARLINK-3909,1 52452U 22049B   24116.52285272  .00005139  00000-0  34067-3 0  9993,2 52452  53.2167 255.8432 0001292 121.0826 239.0293 15.08846857109131,6917.859,95.437,540.618,538.831,0.0
52452.0,STARLINK-3909,PAYLOAD,2024-04-25 14:08:17,15.08848157,0.0001329,53.2164,255.5468,128.2821,231.8291,0.00041894,6.387e-05,0.0,0 STARLINK-3909,1 52452U 22049B   24116.58909234  .00006387  00000-0  41894-3 0  9992,2 52452  53.2164 255.5468 0001329 128.2821 231.8291 15.08848157108984,6917.855,95.437,540.64,538.801,0.0
52452.0,STARLINK-3909,PAYLOAD,2024-04-25 15:43:40,15.08847822,0.000127,53.2168,255.2488,127.0526,233.0582,0.00043472,6.639e-05,0.0,0 STARLINK-3909,1 52452U 22049B   24116.65533234  .00006639  00000-0  43472-3 0  9997,2 52452  53.2168 255.2488 0001270 127.0526 233.0582 15.08847822108997,6917.856,95.437,540.6,538.843,0.0
52452.0,STARLINK-3909,PAYLOAD,2024-04-26 13:59:05,15.08839449,0.000165,53.2181,251.0953,97.0025,263.1155,0.00063548,9.84e-05,0.0,0 STARLINK-3909,1 52452U 22049B   24117.58270281  .00009840  00000-0  63548-3 0  9993,2 52452  53.2181 251.0953 0001650  97.0025 263.1155 15.08839449109295,6917.882,95.438,540.889,538.606,0.0
52452.0,STARLINK-3909,PAYLOAD,2024-04-26 15:34:28,15.08846027,0.0001526,53.2168,250.7935,92.0543,268.0624,0.00088669,0.00013854,0.0,0 STARLINK-3909,1 52452U 22049B   24117.64893992  .00013854  00000-0  88669-3 0  9991,2 52452  53.2168 250.7935 0001526  92.0543 268.0624 15.08846027109147,6917.862,95.437,540.783,538.671,0.0
52452.0,STARLINK-3909,PAYLOAD,2024-04-27 12:14:28,15.0886005,0.0001295,53.2181,246.9281,98.8949,261.219,0.0010372,0.00016267,0.0,0 STARLINK-3909,1 52452U 22049B   24118.51005566  .00016267  00000-0  10372-2 0  9996,2 52452  53.2181 246.9281 0001295  98.8949 261.2190 15.08860050109437,6917.819,95.436,540.58,538.788,0.0
52452.0,STARLINK-3909,PAYLOAD,2024-04-27 13:49:51,15.08860357,0.0001459,53.2181,246.6311,100.6729,259.4428,0.00089558,0.00014002,0.0,0 STARLINK-3909,1 52452U 22049B   24118.57629454  .00014002  00000-0  89558-3 0  9998,2 52452  53.2181 246.6311 0001459 100.6729 259.4428 15.08860357109284,6917.818,95.436,540.692,538.674,0.0
52452.0,STARLINK-3909,PAYLOAD,2024-04-27 15:25:14,15.08865821,0.0001377,53.218,246.3348,95.2928,264.8221,0.00082864,0.00012934,0.0,0 STARLINK-3909,1 52452U 22049B   24118.64253217  .00012934  00000-0  82864-3 0  9991,2 52452  53.2180 246.3348 0001377  95.2928 264.8221 15.08865821109292,6917.801,95.436,540.619,538.714,0.0
52452.0,STARLINK-3909,PAYLOAD,2024-04-28 13:40:39,15.08819335,0.0001534,53.2181,242.1706,86.6429,273.4738,-5.3711e-05,-1.142e-05,0.0,0 STARLINK-3909,1 52452U 22049B   24119.56990223 -.00001142  00000-0 -53711-4 0  9999,2 52452  53.2181 242.1706 0001534  86.6429 273.4738 15.08819335109591,6917.944,95.439,540.87,538.747,0.0
52452.0,STARLINK-3909,PAYLOAD,2024-04-28 15:16:02,15.08826743,0.0001407,53.2181,241.8748,72.9376,287.1771,0.00042166,6.427e-05,0.0,0 STARLINK-3909,1 52452U 22049B   24119.63614246  .00006427  00000-0  42166-3 0  9995,2 52452  53.2181 241.8748 0001407  72.9376 287.1771 15.08826743109445,6917.921,95.438,540.759,538.813,0.0
